{
  "type": "FeatureCollection",
  "features": [
    {
      "type": "Feature",
      "properties": {
        "norad_id": 66975,
        "name": "STARLINK-35777",
        "group": "last-30-days",
        "lat": -34.97376814292453,
        "lon": 86.89337537130504,
        "alt_km": 308.23300595777255,
        "timestamp": "2025-12-17T21:39:44.493548+00:00",
        "meta_object_name": "STARLINK-35777",
        "meta_object_id": "2025-288S",
        "meta_epoch": "2025-12-16T14:00:03.000384",
        "meta_mean_motion": 15.91970964,
        "meta_eccentricity": 0.00016506,
        "meta_inclination": 43.0016,
        "meta_ra_of_asc_node": 143.725,
        "meta_arg_of_pericenter": 270.8357,
        "meta_mean_anomaly": 30.8122,
        "meta_ephemeris_type": 0,
        "meta_classification_type": "U",
        "meta_norad_cat_id": 66975,
        "meta_element_set_no": 999,
        "meta_rev_at_epoch": 245,
        "meta_bstar": -0.004362842,
        "meta_mean_motion_dot": -0.01493789,
        "meta_mean_motion_ddot": 0.00062956716,
        "tle_line1": "1 66975U 25288S   25350.58336806 -.01493789  62957-3 -43628-2 0  9992",
        "tle_line2": "2 66975  43.0016 143.7250 0001650 270.8357  30.8122 15.91970964  2453"
      },
      "geometry": {
        "type": "Point",
        "coordinates": [
          86.89337537130504,
          -34.97376814292453
        ]
      }
    },
    {
      "type": "Feature",
      "properties": {
        "norad_id": 66976,
        "name": "STARLINK-35772",
        "group": "last-30-days",
        "lat": -40.61573712206821,
        "lon": 22.635443196857523,
        "alt_km": 329.46822011707354,
        "timestamp": "2025-12-17T21:39:44.493558+00:00",
        "meta_object_name": "STARLINK-35772",
        "meta_object_id": "2025-288T",
        "meta_epoch": "2025-12-16T14:00:03.000384",
        "meta_mean_motion": 15.86872966,
        "meta_eccentricity": 0.00014036,
        "meta_inclination": 43.0015,
        "meta_ra_of_asc_node": 143.7745,
        "meta_arg_of_pericenter": 266.2961,
        "meta_mean_anomaly": 15.7303,
        "meta_ephemeris_type": 0,
        "meta_classification_type": "U",
        "meta_norad_cat_id": 66976,
        "meta_element_set_no": 999,
        "meta_rev_at_epoch": 245,
        "meta_bstar": -0.0099939677,
        "meta_mean_motion_dot": -0.02260314,
        "meta_mean_motion_ddot": 0,
        "tle_line1": "1 66976U 25288T   25350.58336806 -.02260314  00000+0 -99940-2 0  9995",
        "tle_line2": "2 66976  43.0015 143.7745 0001403 266.2961  15.7303 15.86872966  2458"
      },
      "geometry": {
        "type": "Point",
        "coordinates": [
          22.635443196857523,
          -40.61573712206821
        ]
      }
    },
    {
      "type": "Feature",
      "properties": {
        "norad_id": 66977,
        "name": "STARLINK-35770",
        "group": "last-30-days",
        "lat": -33.708903738346976,
        "lon": 89.8164098459576,
        "alt_km": 308.1157675131535,
        "timestamp": "2025-12-17T21:39:44.493586+00:00",
        "meta_object_name": "STARLINK-35770",
        "meta_object_id": "2025-288U",
        "meta_epoch": "2025-12-16T14:00:03.000384",
        "meta_mean_motion": 15.92020579,
        "meta_eccentricity": 0.00016213,
        "meta_inclination": 43.0015,
        "meta_ra_of_asc_node": 143.719,
        "meta_arg_of_pericenter": 268.791,
        "meta_mean_anomaly": 35.3505,
        "meta_ephemeris_type": 0,
        "meta_classification_type": "U",
        "meta_norad_cat_id": 66977,
        "meta_element_set_no": 999,
        "meta_rev_at_epoch": 245,
        "meta_bstar": -0.0043514458,
        "meta_mean_motion_dot": -0.01493733,
        "meta_mean_motion_ddot": 0.00062982603,
        "tle_line1": "1 66977U 25288U   25350.58336806 -.01493733  62983-3 -43514-2 0  9996",
        "tle_line2": "2 66977  43.0015 143.7190 0001621 268.7910  35.3505 15.92020579  2450"
      },
      "geometry": {
        "type": "Point",
        "coordinates": [
          89.8164098459576,
          -33.708903738346976
        ]
      }
    },
    {
      "type": "Feature",
      "properties": {
        "norad_id": 66978,
        "name": "STARLINK-35787",
        "group": "last-30-days",
        "lat": -30.572948800300047,
        "lon": 96.1769675092496,
        "alt_km": 307.63862399140544,
        "timestamp": "2025-12-17T21:39:44.493595+00:00",
        "meta_object_name": "STARLINK-35787",
        "meta_object_id": "2025-288V",
        "meta_epoch": "2025-12-16T14:00:03.000384",
        "meta_mean_motion": 15.92184934,
        "meta_eccentricity": 0.00017103,
        "meta_inclination": 43.0017,
        "meta_ra_of_asc_node": 143.7048,
        "meta_arg_of_pericenter": 269.1544,
        "meta_mean_anomaly": 40.5806,
        "meta_ephemeris_type": 0,
        "meta_classification_type": "U",
        "meta_norad_cat_id": 66978,
        "meta_element_set_no": 999,
        "meta_rev_at_epoch": 245,
        "meta_bstar": -0.0043821791,
        "meta_mean_motion_dot": -0.01516958,
        "meta_mean_motion_ddot": 0.00064895433,
        "tle_line1": "1 66978U 25288V   25350.58336806 -.01516958  64895-3 -43822-2 0  9998",
        "tle_line2": "2 66978  43.0017 143.7048 0001710 269.1544  40.5806 15.92184934  2450"
      },
      "geometry": {
        "type": "Point",
        "coordinates": [
          96.1769675092496,
          -30.572948800300047
        ]
      }
    },
    {
      "type": "Feature",
      "properties": {
        "norad_id": 66979,
        "name": "STARLINK-36107",
        "group": "last-30-days",
        "lat": -19.22300404077852,
        "lon": 113.49359840472188,
        "alt_km": 289.056211490637,
        "timestamp": "2025-12-17T21:39:44.493605+00:00",
        "meta_object_name": "STARLINK-36107",
        "meta_object_id": "2025-288W",
        "meta_epoch": "2025-12-16T17:12:42.185952",
        "meta_mean_motion": 15.93430839,
        "meta_eccentricity": 0.00160462,
        "meta_inclination": 42.9997,
        "meta_ra_of_asc_node": 142.8664,
        "meta_arg_of_pericenter": 244.4268,
        "meta_mean_anomaly": 115.495,
        "meta_ephemeris_type": 0,
        "meta_classification_type": "U",
        "meta_norad_cat_id": 66979,
        "meta_element_set_no": 999,
        "meta_rev_at_epoch": 247,
        "meta_bstar": 0.0013009519,
        "meta_mean_motion_dot": 0.00486365,
        "meta_mean_motion_ddot": 0.00010087688,
        "tle_line1": "1 66979U 25288W   25350.71715493  .00486365  10088-3  13010-2 0  9993",
        "tle_line2": "2 66979  42.9997 142.8664 0016046 244.4268 115.4950 15.93430839  2470"
      },
      "geometry": {
        "type": "Point",
        "coordinates": [
          113.49359840472188,
          -19.22300404077852
        ]
      }
    },
    {
      "type": "Feature",
      "properties": {
        "norad_id": 66980,
        "name": "STARLINK-36086",
        "group": "last-30-days",
        "lat": -27.909659952877572,
        "lon": 100.86677924609442,
        "alt_km": 307.4056631614185,
        "timestamp": "2025-12-17T21:39:44.493614+00:00",
        "meta_object_name": "STARLINK-36086",
        "meta_object_id": "2025-288X",
        "meta_epoch": "2025-12-16T14:00:03.000384",
        "meta_mean_motion": 15.92297904,
        "meta_eccentricity": 0.00016182,
        "meta_inclination": 43.0016,
        "meta_ra_of_asc_node": 143.6934,
        "meta_arg_of_pericenter": 268.1791,
        "meta_mean_anomaly": 45.9943,
        "meta_ephemeris_type": 0,
        "meta_classification_type": "U",
        "meta_norad_cat_id": 66980,
        "meta_element_set_no": 999,
        "meta_rev_at_epoch": 245,
        "meta_bstar": -0.0043994033,
        "meta_mean_motion_dot": -0.01531722,
        "meta_mean_motion_ddot": 0.00066132736,
        "tle_line1": "1 66980U 25288X   25350.58336806 -.01531722  66133-3 -43994-2 0  9994",
        "tle_line2": "2 66980  43.0016 143.6934 0001618 268.1791  45.9943 15.92297904  2458"
      },
      "geometry": {
        "type": "Point",
        "coordinates": [
          100.86677924609442,
          -27.909659952877572
        ]
      }
    },
    {
      "type": "Feature",
      "properties": {
        "norad_id": 66981,
        "name": "STARLINK-36142",
        "group": "last-30-days",
        "lat": -26.730475602585667,
        "lon": 102.78809847124748,
        "alt_km": 307.143386140624,
        "timestamp": "2025-12-17T21:39:44.493623+00:00",
        "meta_object_name": "STARLINK-36142",
        "meta_object_id": "2025-288Y",
        "meta_epoch": "2025-12-16T14:00:03.000384",
        "meta_mean_motion": 15.92353214,
        "meta_eccentricity": 0.00017323,
        "meta_inclination": 43.0017,
        "meta_ra_of_asc_node": 143.6886,
        "meta_arg_of_pericenter": 269.5465,
        "meta_mean_anomaly": 46.4787,
        "meta_ephemeris_type": 0,
        "meta_classification_type": "U",
        "meta_norad_cat_id": 66981,
        "meta_element_set_no": 999,
        "meta_rev_at_epoch": 245,
        "meta_bstar": -0.0044051019,
        "meta_mean_motion_dot": -0.01538093,
        "meta_mean_motion_ddot": 0.00066674822,
        "tle_line1": "1 66981U 25288Y   25350.58336806 -.01538093  66675-3 -44051-2 0  9999",
        "tle_line2": "2 66981  43.0017 143.6886 0001732 269.5465  46.4787 15.92353214  2455"
      },
      "geometry": {
        "type": "Point",
        "coordinates": [
          102.78809847124748,
          -26.730475602585667
        ]
      }
    }
  ]
}